IRIDIUM 155             
1 43573U 18061E   25298.34002841  .00000316  00000+0  10560-3 0  9990
2 43573  86.3989 154.8560 0002032  79.4548 280.6877 14.34218625379698
IRIDIUM 154             
1 43574U 18061F   25298.32100075  .00000359  00000+0  12103-3 0  9999
2 43574  86.3990 154.9856 0002072  86.2438 273.8995 14.34219697379749
IRIDIUM 163             
1 43575U 18061G   25298.30197985  .00000367  00000+0  12406-3 0  9999
2 43575  86.3991 154.9166 0002255  84.3169 275.8284 14.34222523379710
IRIDIUM 156             
1 43576U 18061H   25298.34637067  .00000175  00000+0  55498-4 0  9990
2 43576  86.3994 154.9050 0001915  78.8852 281.2559 14.34218081379715
IRIDIUM 164             
1 43577U 18061J   25298.32734282  .00000143  00000+0  44127-4 0  9998
2 43577  86.3992 154.9495 0001844  89.2832 270.8575 14.34218070379756
IRIDIUM 159             
1 43578U 18061K   25298.15609337  .00000148  00000+0  45950-4 0  9992
2 43578  86.3991 154.9629 0002151  89.1340 271.0103 14.34218238379699
IRIDIUM 180             
1 43922U 19002A   25298.50443181  .00000327  00000+0  10984-3 0  9990
2 43922  86.3926  91.7105 0002191  89.9555 270.1892 14.34217819355353
IRIDIUM 176             
1 43923U 19002B   25298.46648977  .00000703  00000+0  10750-3 0  9995
2 43923  86.6048  91.7037 0002083  73.1508 286.9938 14.72260808364713
IRIDIUM 168             
1 43924U 19002C   25298.49808833  .00000204  00000+0  65718-4 0  9999
2 43924  86.3927  91.7839 0002114  90.2923 269.8515 14.34218260355335
IRIDIUM 173             
1 43925U 19002D   25298.48540291 -.00000040  00000+0 -21173-4 0  9997
2 43925  86.3923  91.6875 0002157  86.8789 273.2653 14.34216504355318
IRIDIUM 169             
1 43926U 19002E   25298.50151285  .00000183  00000+0  53262-4 0  9992
2 43926  86.4193 123.3296 0002566  58.3089 301.8359 14.38610179356480
IRIDIUM 172             
1 43927U 19002F   25298.47906219  .00000340  00000+0  11447-3 0  9997
2 43927  86.3924  91.6974 0002279  94.1991 265.9465 14.34218178355322
IRIDIUM 175             
1 43928U 19002G   25298.32575201  .00001803  00000+0  28194-3 0  9997
2 43928  86.1534  36.8882 0001307  99.7633 260.3731 14.72247233364682
IRIDIUM 171             
1 43929U 19002H   25298.46003368 -.00000057  00000+0 -27498-4 0  9992
2 43929  86.3931  91.9861 0001686  91.9650 268.1739 14.34216878355311
IRIDIUM 170             
1 43930U 19002J   25298.47266139  .00000709  00000+0  10861-3 0  9999
2 43930  86.6048  91.7050 0002209  90.5815 269.5655 14.72243865364728
IRIDIUM 167             
1 43931U 19002K   25298.45369097 -.00000067  00000+0 -30978-4 0  9996
2 43931  86.3924  91.7286 0001622  84.3208 275.8173 14.34216620355312
IRIDIUM 181             
1 56726U 23068S   25298.35725428  .00000497  00000+0  14161-3 0  9992
2 56726  86.4530 154.9312 0001763  99.5306 260.6094 14.43315961128564
IRIDIUM 177             
1 56727U 23068T   25298.47460571  .00002339  00000+0  30433-3 0  9998
2 56727  86.1940  80.2512 0002272  86.5553 273.5928 14.80225764131640
IRIDIUM 174             
1 56728U 23068U   25298.46032781  .00000754  00000+0  11567-3 0  9992
2 56728  86.6057  91.8343 0002807  86.8906 273.2632 14.72265295131489
IRIDIUM 178             
1 56729U 23068V   25298.46369426  .00000002  00000+0 -32589-5 0  9998
2 56729  86.6516 123.4749 0001837  82.6313 277.5117 14.80236023131649
IRIDIUM 179             
1 56730U 23068W   25298.52593919  .00000612  00000+0  77160-4 0  9992
2 56730  86.6766 131.7237 0001600  78.3456 281.7945 14.80236355131655
